PROBA-1                 
1 26958U 01049B   26159.50757829  .00003128  00000+0  20380-3 0  9999
2 26958  97.9598 167.7374 0055516 150.9495 209.4840 15.07458945342317
CUTE-1 (CO-55)          
1 27844U 03031E   26159.25615714  .00000298  00000+0  14775-3 0  9991
2 27844  98.6735 167.9273 0008945 204.6801 155.3951 14.24330308190408
CUBESAT XI-IV (CO-57)   
1 27848U 03031J   26158.95900341  .00000277  00000+0  14071-3 0  9990
2 27848  98.6766 167.3539 0008515 225.8669 134.1810 14.23616071190069
APRIZESAT 4             
1 35684U 09041D   26159.49091174  .00000686  00000+0  88428-4 0  9991
2 35684  98.1412 234.6381 0043016 351.6681   8.3813 14.83868035910070
APRIZESAT 3             
1 35686U 09041F   26159.40513803  .00001288  00000+0  11559-3 0  9991
2 35686  98.2053 312.2095 0062740  95.9665 264.8710 14.96216040915060
PROBA-2                 
1 36037U 09059B   26159.50596976  .00000209  00000+0  59168-4 0  9995
2 36037  98.2451 342.9793 0012247 311.5420  48.4726 14.54858836880266
APRIZESAT 5             
1 37792U 11044E   26159.35965000  .00001196  00000+0  15802-3 0  9994
2 37792  98.2453  92.1500 0053023  32.4681 327.9774 14.81056897797488
APRIZESAT 6             
1 37793U 11044F   26159.49581447  .00000744  00000+0  11201-3 0  9996
2 37793  98.2371  69.8178 0044338 113.0317  59.6592 14.76903299795869
PROBA-V                 
1 39159U 13021A   26159.47412429  .00000079  00000+0  52713-4 0  9997
2 39159  98.3580 138.5111 0004743 144.4505 215.6992 14.23595177679878
APRIZESAT 7             
1 39416U 13066A   26159.36572727  .00001200  00000+0  12421-3 0  9996
2 39416  97.7704 112.7125 0034439 239.4434 120.3384 14.91546034679910
APRIZESAT 8             
1 39425U 13066K   26159.39745645  .00001112  00000+0  12633-3 0  9997
2 39425  97.8218 106.9882 0044855 316.3535  43.4137 14.87635749678362
BUGSAT-1 (TITA)         
1 40014U 14033E   26159.51904718  .00006569  00000+0  34764-3 0  9990
2 40014  98.0420 251.5618 0027418 208.1634 151.8115 15.15495304654529
SAUDISAT 4              
1 40016U 14033G   26159.39459844  .00000775  00000+0  10852-3 0  9998
2 40016  97.7574 305.8342 0046216 101.6982 258.9421 14.79532730644773
APRIZESAT 9             
1 40018U 14033J   26159.31603773  .00000681  00000+0  10757-3 0  9994
2 40018  97.9049 292.7321 0065108 228.0087 131.5566 14.74202863642259
APRIZESAT 10            
1 40019U 14033K   26159.07900769  .00000474  00000+0  82368-4 0  9991
2 40019  97.9639 286.2421 0077626 303.4380  55.9420 14.70875008640918
TECHDEMOSAT-1 (TDS-1)   
1 40076U 14037H   26159.49617622  .00007858  00000+0  44715-3 0  9993
2 40076  98.3815 150.8486 0004631 306.9167  53.1637 15.13167387646914
TECHNOSAT               
1 42829U 17042E   26159.40607311  .00002780  00000+0  19990-3 0  9991
2 42829  97.4267 317.3998 0018858 121.9012 238.4052 15.04901037485380
FLYING LAPTOP           
1 42831U 17042G   26159.51986329  .00003752  00000+0  29663-3 0  9993
2 42831  97.4657 315.3891 0019144 150.0384 210.1941 15.01089764485150
HAWK-A                  
1 43765U 18099H   26159.02818187  .00007426  00000+0  29991-3 0  9991
2 43765  97.3915 211.3837 0033558 319.6598  40.2151 15.24536500411708
HAWK-B                  
1 43794U 18099AN  26159.10454317  .00006926  00000+0  29600-3 0  9994
2 43794  97.3967 210.8933 0031226 338.1496  21.8406 15.22727709411654
HAWK-C                  
1 43799U 18099AT  26158.89441475  .00008636  00000+0  31201-3 0  9995
2 43799  97.3892 212.1188 0039235 320.0343  39.8010 15.27974189412496
SALSAT                  
1 46495U 20068K   26158.98778249  .00008175  00000+0  28698-3 0  9996
2 46495  97.8853 161.4934 0008911 345.1768  14.9208 15.29667638313959
HAWK-2C                 
1 47502U 21006CT  26159.02348930  .00007002  00000+0  21140-3 0  9998
2 47502  97.2283 203.5168 0005660 220.5779 139.5044 15.34554187298092
HAWK-2A                 
1 47505U 21006CW  26159.02607198  .00006903  00000+0  20837-3 0  9996
2 47505  97.2324 204.1917 0005099 224.9271 135.1561 15.34568999298093
HAWK-2B                 
1 47508U 21006CZ  26159.02208965  .00007940  00000+0  23871-3 0  9991
2 47508  97.2194 202.5343 0005642 222.6102 137.4704 15.34642979298093
HAWK-3B                 
1 48931U 21059BE  26159.52421161  .00043760  00000+0  38239-3 0  9994
2 48931  97.6672 355.4179 0003863  11.5267 348.6082 15.68822921276493
HAWK-3C                 
1 48948U 21059BX  26159.52388969  .00040791  00000+0  35662-3 0  9998
2 48948  97.6796   1.0881 0004331  12.1288 348.0076 15.68822702276497
HAWK-3A                 
1 48957U 21059CG  26159.52379213  .00041732  00000+0  36480-3 0  9995
2 48957  97.6737 358.3003 0004344  14.2423 345.8959 15.68821173276490
HAWK-5C                 
1 52754U 22057Y   26159.40022022  .00017207  00000+0  29692-3 0  9991
2 52754  97.6587 318.5039 0005390 108.4821 251.7017 15.51078510224988
HAWK-5B                 
1 52756U 22057AA  26159.40007304  .00017500  00000+0  30190-3 0  9990
2 52756  97.6597 316.8526 0006022 101.2657 258.9271 15.51078713224980
